[{"OBJECT_NAME":"STARLINK-31806","OBJECT_ID":"2024-082K","EPOCH":"2026-03-09T12:12:44.157024","MEAN_MOTION":15.2757104,"ECCENTRICITY":0.0001213,"INCLINATION":42.999,"RA_OF_ASC_NODE":140.8852,"ARG_OF_PERICENTER":210.6429,"MEAN_ANOMALY":149.4352,"EPHEMERIS_TYPE":0,"CLASSIFICATION_TYPE":"U","NORAD_CAT_ID":59640,"ELEMENT_SET_NO":999,"REV_AT_EPOCH":10478,"BSTAR":-5.8252e-5,"MEAN_MOTION_DOT":-1.864e-5,"MEAN_MOTION_DDOT":0},{"OBJECT_NAME":"YAOGAN-43 01D","OBJECT_ID":"2024-148D","EPOCH":"2026-03-09T10:27:16.254720","MEAN_MOTION":15.28369377,"ECCENTRICITY":0.00025569,"INCLINATION":35.001,"RA_OF_ASC_NODE":61.7102,"ARG_OF_PERICENTER":326.2473,"MEAN_ANOMALY":33.808,"EPHEMERIS_TYPE":0,"CLASSIFICATION_TYPE":"U","NORAD_CAT_ID":60461,"ELEMENT_SET_NO":999,"REV_AT_EPOCH":8700,"BSTAR":0.00037765912,"MEAN_MOTION_DOT":0.00010676,"MEAN_MOTION_DDOT":0}]
