STARLINK-31806          
1 59640U 24082K   26068.50884441 -.00001864  00000+0 -58252-4 0  9992
2 59640  42.9990 140.8852 0001213 210.6429 149.4352 15.27571040104788
YAOGAN-43 01D           
1 60461U 24148D   26068.43560480  .00010676  00000+0  37766-3 0  9999
2 60461  35.0010  61.7102 0002556 326.2473  33.8080 15.28369377 87008
